{"fetched_at":"2026-07-16T06:42:38.478Z","source":"https://celestrak.org/NORAD/elements/gp.php?GROUP=spire&FORMAT=JSON","constellation":"spire","records":[{"OBJECT_NAME":"LEMUR-2-HUBBLE-4","OBJECT_ID":"2025-135AP","EPOCH":"2026-07-15T21:04:25.586688","CLASSIFICATION_TYPE":"U","MEAN_MOTION":14.93687144,"ECCENTRICITY":0.00027253,"INCLINATION":97.772,"RA_OF_ASC_NODE":310.452,"ARG_OF_PERICENTER":160.3081,"MEAN_ANOMALY":199.8244,"EPHEMERIS_TYPE":0,"NORAD_CAT_ID":64565,"ELEMENT_SET_NO":999,"REV_AT_EPOCH":5815,"BSTAR":0.000080239273,"MEAN_MOTION_DOT":0.00000792,"MEAN_MOTION_DDOT":0},{"OBJECT_NAME":"LEMUR-2-SEJONG-2","OBJECT_ID":"2025-135BL","EPOCH":"2026-07-15T22:00:05.912640","CLASSIFICATION_TYPE":"U","MEAN_MOTION":14.96914863,"ECCENTRICITY":0.00040066,"INCLINATION":97.7709,"RA_OF_ASC_NODE":311.7477,"ARG_OF_PERICENTER":215.3704,"MEAN_ANOMALY":144.7252,"EPHEMERIS_TYPE":0,"NORAD_CAT_ID":64586,"ELEMENT_SET_NO":999,"REV_AT_EPOCH":5824,"BSTAR":0.00018859341,"MEAN_MOTION_DOT":0.00002107,"MEAN_MOTION_DDOT":0},{"OBJECT_NAME":"LEMUR-2-HUBBLE-5","OBJECT_ID":"2025-135BT","EPOCH":"2026-07-15T21:16:48.084960","CLASSIFICATION_TYPE":"U","MEAN_MOTION":14.94214757,"ECCENTRICITY":0.00043553,"INCLINATION":97.7741,"RA_OF_ASC_NODE":311.1302,"ARG_OF_PERICENTER":232.4471,"MEAN_ANOMALY":127.6353,"EPHEMERIS_TYPE":0,"NORAD_CAT_ID":64840,"ELEMENT_SET_NO":999,"REV_AT_EPOCH":5819,"BSTAR":0.000059795385,"MEAN_MOTION_DOT":0.00000584,"MEAN_MOTION_DDOT":0},{"OBJECT_NAME":"LEMUR-2-KARENDARRELL","OBJECT_ID":"2025-135BU","EPOCH":"2026-07-15T19:07:08.897664","CLASSIFICATION_TYPE":"U","MEAN_MOTION":15.00505264,"ECCENTRICITY":0.0012499,"INCLINATION":97.7719,"RA_OF_ASC_NODE":312.9676,"ARG_OF_PERICENTER":102.9205,"MEAN_ANOMALY":257.3415,"EPHEMERIS_TYPE":0,"NORAD_CAT_ID":64841,"ELEMENT_SET_NO":999,"REV_AT_EPOCH":5830,"BSTAR":0.00034587499,"MEAN_MOTION_DOT":0.00004305,"MEAN_MOTION_DDOT":0},{"OBJECT_NAME":"LEMUR-2-LUCILLE-ROSE","OBJECT_ID":"2025-135BV","EPOCH":"2026-07-15T21:40:59.006208","CLASSIFICATION_TYPE":"U","MEAN_MOTION":15.00493417,"ECCENTRICITY":0.0014989,"INCLINATION":97.7712,"RA_OF_ASC_NODE":313.1096,"ARG_OF_PERICENTER":186.8472,"MEAN_ANOMALY":173.2549,"EPHEMERIS_TYPE":0,"NORAD_CAT_ID":65403,"ELEMENT_SET_NO":999,"REV_AT_EPOCH":5294,"BSTAR":0.00026742452,"MEAN_MOTION_DOT":0.00003315,"MEAN_MOTION_DDOT":0},{"OBJECT_NAME":"LEMUR-2-AFFIE-WAUWIE","OBJECT_ID":"2025-248C","EPOCH":"2026-07-15T08:51:52.657344","CLASSIFICATION_TYPE":"U","MEAN_MOTION":15.2825643,"ECCENTRICITY":0.00087669,"INCLINATION":45.3887,"RA_OF_ASC_NODE":322.1687,"ARG_OF_PERICENTER":251.4181,"MEAN_ANOMALY":108.5756,"EPHEMERIS_TYPE":0,"NORAD_CAT_ID":66295,"ELEMENT_SET_NO":999,"REV_AT_EPOCH":3890,"BSTAR":0.00046577019,"MEAN_MOTION_DOT":0.00012792,"MEAN_MOTION_DDOT":0},{"OBJECT_NAME":"OTTER SDM","OBJECT_ID":"2025-276N","EPOCH":"2026-07-15T03:54:58.180896","CLASSIFICATION_TYPE":"U","MEAN_MOTION":15.2005668,"ECCENTRICITY":0.00042957,"INCLINATION":97.4206,"RA_OF_ASC_NODE":269.1787,"ARG_OF_PERICENTER":254.0411,"MEAN_ANOMALY":106.0351,"EPHEMERIS_TYPE":0,"NORAD_CAT_ID":66678,"ELEMENT_SET_NO":999,"REV_AT_EPOCH":3466,"BSTAR":0.00016803421,"MEAN_MOTION_DOT":0.00003557,"MEAN_MOTION_DDOT":0},{"OBJECT_NAME":"LEMUR-2-STAS-GORBUK","OBJECT_ID":"2025-276W","EPOCH":"2026-07-15T04:25:49.159200","CLASSIFICATION_TYPE":"U","MEAN_MOTION":15.19658337,"ECCENTRICITY":0.00036139,"INCLINATION":97.424,"RA_OF_ASC_NODE":269.2517,"ARG_OF_PERICENTER":248.2139,"MEAN_ANOMALY":111.8711,"EPHEMERIS_TYPE":0,"NORAD_CAT_ID":66686,"ELEMENT_SET_NO":999,"REV_AT_EPOCH":3466,"BSTAR":0.00013639192,"MEAN_MOTION_DOT":0.00002841,"MEAN_MOTION_DDOT":0},{"OBJECT_NAME":"LEMUR-2-TEODOR","OBJECT_ID":"2025-276DG","EPOCH":"2026-07-15T17:30:35.244576","CLASSIFICATION_TYPE":"U","MEAN_MOTION":15.21341179,"ECCENTRICITY":0.00022035,"INCLINATION":97.4144,"RA_OF_ASC_NODE":270.0602,"ARG_OF_PERICENTER":87.3705,"MEAN_ANOMALY":272.7783,"EPHEMERIS_TYPE":0,"NORAD_CAT_ID":66768,"ELEMENT_SET_NO":999,"REV_AT_EPOCH":3478,"BSTAR":0.00014257158,"MEAN_MOTION_DOT":0.00003124,"MEAN_MOTION_DDOT":0},{"OBJECT_NAME":"LEMUR-2-LAILA","OBJECT_ID":"2025-276DQ","EPOCH":"2026-07-15T18:21:41.262624","CLASSIFICATION_TYPE":"U","MEAN_MOTION":15.21566764,"ECCENTRICITY":0.00029348,"INCLINATION":97.4167,"RA_OF_ASC_NODE":270.2341,"ARG_OF_PERICENTER":93.5101,"MEAN_ANOMALY":266.6471,"EPHEMERIS_TYPE":0,"NORAD_CAT_ID":66776,"ELEMENT_SET_NO":999,"REV_AT_EPOCH":3479,"BSTAR":0.00013977674,"MEAN_MOTION_DOT":0.00003082,"MEAN_MOTION_DDOT":0},{"OBJECT_NAME":"LEMUR-2-CELIJO-SB-PK","OBJECT_ID":"2025-276DW","EPOCH":"2026-07-15T04:26:13.736544","CLASSIFICATION_TYPE":"U","MEAN_MOTION":15.00282855,"ECCENTRICITY":0.00070307,"INCLINATION":97.5197,"RA_OF_ASC_NODE":266.0383,"ARG_OF_PERICENTER":64.1114,"MEAN_ANOMALY":296.0834,"EPHEMERIS_TYPE":0,"NORAD_CAT_ID":66781,"ELEMENT_SET_NO":999,"REV_AT_EPOCH":2682,"BSTAR":0.00021422816,"MEAN_MOTION_DOT":0.00002627,"MEAN_MOTION_DDOT":0},{"OBJECT_NAME":"LEMUR-2-FINNIAN","OBJECT_ID":"2025-276DX","EPOCH":"2026-07-15T03:43:26.139360","CLASSIFICATION_TYPE":"U","MEAN_MOTION":15.00617476,"ECCENTRICITY":0.0007355,"INCLINATION":97.535,"RA_OF_ASC_NODE":266.2766,"ARG_OF_PERICENTER":0.2021,"MEAN_ANOMALY":359.9204,"EPHEMERIS_TYPE":0,"NORAD_CAT_ID":66782,"ELEMENT_SET_NO":999,"REV_AT_EPOCH":2419,"BSTAR":0.00012854,"MEAN_MOTION_DOT":0.00001567,"MEAN_MOTION_DDOT":0},{"OBJECT_NAME":"LEMUR-2-STARLIGHT","OBJECT_ID":"2025-276DY","EPOCH":"2026-07-15T17:40:21.800352","CLASSIFICATION_TYPE":"U","MEAN_MOTION":14.99359751,"ECCENTRICITY":0.00147031,"INCLINATION":97.5237,"RA_OF_ASC_NODE":266.399,"ARG_OF_PERICENTER":45.9551,"MEAN_ANOMALY":314.2881,"EPHEMERIS_TYPE":0,"NORAD_CAT_ID":66783,"ELEMENT_SET_NO":999,"REV_AT_EPOCH":3447,"BSTAR":0.0003253785,"MEAN_MOTION_DOT":0.00003931,"MEAN_MOTION_DDOT":0},{"OBJECT_NAME":"LEMUR-2-TARTIFLETTE","OBJECT_ID":"2025-276DZ","EPOCH":"2026-07-15T17:38:04.104672","CLASSIFICATION_TYPE":"U","MEAN_MOTION":14.99344051,"ECCENTRICITY":0.00139324,"INCLINATION":97.5233,"RA_OF_ASC_NODE":266.406,"ARG_OF_PERICENTER":54.0986,"MEAN_ANOMALY":306.1528,"EPHEMERIS_TYPE":0,"NORAD_CAT_ID":66784,"ELEMENT_SET_NO":999,"REV_AT_EPOCH":3447,"BSTAR":0.00029425154,"MEAN_MOTION_DOT":0.00003547,"MEAN_MOTION_DDOT":0},{"OBJECT_NAME":"LEMUR-2-VUKASIN","OBJECT_ID":"2025-276EA","EPOCH":"2026-07-15T10:30:39.583296","CLASSIFICATION_TYPE":"U","MEAN_MOTION":15.00547816,"ECCENTRICITY":0.00030097,"INCLINATION":97.5225,"RA_OF_ASC_NODE":266.4784,"ARG_OF_PERICENTER":54.6236,"MEAN_ANOMALY":305.5269,"EPHEMERIS_TYPE":0,"NORAD_CAT_ID":66785,"ELEMENT_SET_NO":999,"REV_AT_EPOCH":3438,"BSTAR":0.00020106065,"MEAN_MOTION_DOT":0.00002479,"MEAN_MOTION_DDOT":0},{"OBJECT_NAME":"LEMUR-2-HOTSPUR-TOM","OBJECT_ID":"2025-276EB","EPOCH":"2026-07-15T17:30:03.479616","CLASSIFICATION_TYPE":"U","MEAN_MOTION":14.9924489,"ECCENTRICITY":0.00137707,"INCLINATION":97.5218,"RA_OF_ASC_NODE":266.3745,"ARG_OF_PERICENTER":45.5113,"MEAN_ANOMALY":314.7234,"EPHEMERIS_TYPE":0,"NORAD_CAT_ID":66786,"ELEMENT_SET_NO":999,"REV_AT_EPOCH":3440,"BSTAR":0.00025595377,"MEAN_MOTION_DOT":0.0000307,"MEAN_MOTION_DDOT":0}]}
